NORAD_CAT_ID,OBJECT_NAME,OBJECT_TYPE,EPOCH,MEAN_MOTION,ECCENTRICITY,INCLINATION,RA_OF_ASC_NODE,ARG_OF_PERICENTER,MEAN_ANOMALY,BSTAR,MEAN_MOTION_DOT,MEAN_MOTION_DDOT,TLE_LINE0,TLE_LINE1,TLE_LINE2,SEMIMAJOR_AXIS,PERIOD,APOGEE,PERIGEE,DECAYED
56806.0,STARLINK-6072,PAYLOAD,2023-09-05 23:30:52,15.6984482,0.0003796,69.9978,138.5875,273.1432,86.9329,-3.5674e-05,-4.486e-05,0.0,0 STARLINK-6072,1 56806U 23078AR  23248.97977647 -.00004486  00000-0 -35674-4 0  9993,2 56806  69.9978 138.5875 0003796 273.1432  86.9329 15.69844820 15649,6737.478,91.729,361.901,356.785,0.0
56806.0,STARLINK-6072,PAYLOAD,2023-09-06 10:13:02,15.69940496,0.0003316,69.9975,137.3335,285.2705,74.8124,2.226e-05,2.466e-05,0.0,0 STARLINK-6072,1 56806U 23078AR  23249.42572142  .00002466  00000-0  22260-4 0  9996,2 56806  69.9975 137.3335 0003316 285.2705  74.8124 15.69940496 15712,6737.204,91.723,361.303,356.835,0.0
56806.0,STARLINK-6072,PAYLOAD,2023-09-07 03:02:19,15.69925563,0.0003571,69.9971,135.3627,270.2372,89.8415,8.563e-06,8.17e-06,0.0,0 STARLINK-6072,1 56806U 23078AR  23250.12661332  .00000817  00000-0  85630-5 0  9994,2 56806  69.9971 135.3627 0003571 270.2372  89.8415 15.69925563 15826,6737.247,91.724,361.518,356.706,0.0
56806.0,STARLINK-6072,PAYLOAD,2023-09-08 01:58:38,15.69901601,0.0003477,69.9972,132.6761,283.2975,76.7833,-3.5947e-05,-4.529e-05,0.0,0 STARLINK-6072,1 56806U 23078AR  23251.08238703 -.00004529  00000-0 -35947-4 0  9993,2 56806  69.9972 132.6761 0003477 283.2975  76.7833 15.69901601 15976,6737.316,91.725,361.523,356.838,0.0
56806.0,STARLINK-6072,PAYLOAD,2023-09-08 18:47:52,15.69937721,0.0003513,69.9966,130.704,268.9414,91.1379,-1.2255e-06,-3.6e-06,0.0,0 STARLINK-6072,1 56806U 23078AR  23251.78324111 -.00000360  00000-0 -12255-5 0  9996,2 56806  69.9966 130.7040 0003513 268.9414  91.1379 15.69937721 16088,6737.212,91.723,361.444,356.71,0.0
56806.0,STARLINK-6072,PAYLOAD,2023-09-09 02:26:38,15.69918423,0.0003548,69.9962,129.8075,269.5681,90.5108,7.6433e-06,7.06e-06,0.0,0 STARLINK-6072,1 56806U 23078AR  23252.10183708  .00000706  00000-0  76433-5 0  9998,2 56806  69.9962 129.8075 0003548 269.5681  90.5108 15.69918423 16139,6737.267,91.725,361.523,356.742,0.0
56806.0,STARLINK-6072,PAYLOAD,2023-09-09 19:15:53,15.69969334,0.0003128,69.9986,127.8389,270.2575,89.8262,-3.038e-05,-3.871e-05,0.0,0 STARLINK-6072,1 56806U 23078AR  23252.80270446 -.00003871  00000-0 -30380-4 0  9999,2 56806  69.9986 127.8389 0003128 270.2575  89.8262 15.69969334 16247,6737.122,91.722,361.094,356.879,0.0
56806.0,STARLINK-6072,PAYLOAD,2023-09-10 01:22:55,15.6992364,0.0003818,69.9963,127.1209,271.558,88.5179,1.0036e-05,9.94e-06,0.0,0 STARLINK-6072,1 56806U 23078AR  23253.05758393  .00000994  00000-0  10036-4 0  9996,2 56806  69.9963 127.1209 0003818 271.5580  88.5179 15.69923640 16289,6737.252,91.724,361.69,356.545,0.0
56806.0,STARLINK-6072,PAYLOAD,2023-09-11 01:50:56,15.699318,0.0003731,69.9962,124.255,270.1628,89.914,1.475e-05,1.561e-05,0.0,0 STARLINK-6072,1 56806U 23078AR  23254.07704608  .00001561  00000-0  14750-4 0  9997,2 56806  69.9962 124.2550 0003731 270.1628  89.9140 15.69931800 16445,6737.229,91.724,361.608,356.58,0.0
56806.0,STARLINK-6072,PAYLOAD,2023-09-12 00:47:14,15.69921295,0.0003715,69.9964,121.5683,271.3989,88.6781,1.0319e-05,1.028e-05,0.0,0 STARLINK-6072,1 56806U 23078AR  23255.03280325  .00001028  00000-0  10319-4 0  9994,2 56806  69.9964 121.5683 0003715 271.3989  88.6781 15.69921295 16599,6737.259,91.724,361.627,356.621,0.0
56806.0,STARLINK-6072,PAYLOAD,2023-09-12 17:36:30,15.69918321,0.0003515,69.9972,119.5961,270.5844,89.4949,1.8327e-05,1.991e-05,0.0,0 STARLINK-6072,1 56806U 23078AR  23255.73368889  .00001991  00000-0  18327-4 0  9999,2 56806  69.9972 119.5961 0003515 270.5844  89.4949 15.69918321 16448,6737.268,91.725,361.501,356.765,0.0
56806.0,STARLINK-6072,PAYLOAD,2023-09-13 01:15:15,15.69933839,0.0003507,69.9966,118.7006,270.5163,89.5631,3.0703e-05,3.482e-05,0.0,0 STARLINK-6072,1 56806U 23078AR  23256.05226153  .00003482  00000-0  30703-4 0  9991,2 56806  69.9966 118.7006 0003507 270.5163  89.5631 15.69933839 16751,6737.223,91.724,361.451,356.726,0.0
56806.0,STARLINK-6072,PAYLOAD,2023-09-13 18:04:33,15.69907325,0.0003939,69.9952,116.7307,277.8168,82.2581,7.3649e-06,6.72e-06,0.0,0 STARLINK-6072,1 56806U 23078AR  23256.75316447  .00000672  00000-0  73649-5 0  9999,2 56806  69.9952 116.7307 0003939 277.8168  82.2581 15.69907325 16869,6737.299,91.725,361.818,356.51,0.0
56806.0,STARLINK-6072,PAYLOAD,2023-09-13 21:08:04,15.69894692,0.0003478,69.9967,116.372,269.4444,90.6353,-1.5509e-05,-2.075e-05,0.0,0 STARLINK-6072,1 56806U 23078AR  23256.88061025 -.00002075  00000-0 -15509-4 0  9993,2 56806  69.9967 116.3720 0003478 269.4444  90.6353 15.69894692 16628,6737.335,91.726,361.544,356.857,0.0
56806.0,STARLINK-6072,PAYLOAD,2023-09-14 01:43:20,15.69890376,0.000316,69.9976,115.8345,269.1775,90.9059,4.0522e-06,2.74e-06,0.0,0 STARLINK-6072,1 56806U 23078AR  23257.07176357  .00000274  00000-0  40522-5 0  9991,2 56806  69.9976 115.8345 0003160 269.1775  90.9059 15.69890376 16910,6737.348,91.726,361.342,357.084,0.0
56806.0,STARLINK-6072,PAYLOAD,2023-09-14 13:57:19,15.69930403,0.0003336,69.9996,114.4032,266.153,93.9284,1.895e-05,2.067e-05,0.0,0 STARLINK-6072,1 56806U 23078AR  23257.58147069  .00002067  00000-0  18950-4 0  9996,2 56806  69.9996 114.4032 0003336 266.1530  93.9284 15.69930403 16730,6737.233,91.724,361.346,356.851,0.0
56806.0,STARLINK-6072,PAYLOAD,2023-09-14 17:00:50,15.69914718,0.0003028,69.9985,114.045,263.9553,96.1297,-4.7626e-06,-7.85e-06,0.0,0 STARLINK-6072,1 56806U 23078AR  23257.70891581 -.00000785  00000-0 -47626-5 0  9995,2 56806  69.9985 114.0450 0003028 263.9553  96.1297 15.69914718 17018,6737.278,91.725,361.183,357.103,0.0
56806.0,STARLINK-6072,PAYLOAD,2023-09-15 00:39:35,15.69922695,0.0003238,69.9968,113.1478,264.548,95.5346,-3.5894e-06,-6.44e-06,0.0,0 STARLINK-6072,1 56806U 23078AR  23258.02749371 -.00000644  00000-0 -35894-5 0  9998,2 56806  69.9968 113.1478 0003238 264.5480  95.5346 15.69922695 17064,6737.255,91.724,361.302,356.939,0.0
56806.0,STARLINK-6072,PAYLOAD,2023-09-15 23:35:53,15.69901528,0.0003276,69.9971,110.4605,268.6796,91.4024,2.5276e-05,2.825e-05,0.0,0 STARLINK-6072,1 56806U 23078AR  23258.98325368  .00002825  00000-0  25276-4 0  9992,2 56806  69.9971 110.4605 0003276 268.6796  91.4024 15.69901528 17214,6737.316,91.725,361.388,356.974,0.0
56806.0,STARLINK-6072,PAYLOAD,2023-09-16 16:25:07,15.6994738,0.0003529,69.9969,108.4899,269.8444,90.2348,-1.5972e-05,-2.135e-05,0.0,0 STARLINK-6072,1 56806U 23078AR  23259.68411749 -.00002135  00000-0 -15972-4 0  9997,2 56806  69.9969 108.4899 0003529 269.8444  90.2348 15.69947380 17321,6737.185,91.723,361.427,356.672,0.0
56806.0,STARLINK-6072,PAYLOAD,2023-09-17 00:03:54,15.69899792,0.0003488,69.9987,107.594,277.3903,82.6896,-2.9602e-05,-3.767e-05,0.0,0 STARLINK-6072,1 56806U 23078AR  23260.00271974 -.00003767  00000-0 -29602-4 0  9996,2 56806  69.9987 107.5940 0003488 277.3903  82.6896 15.69899792 17377,6737.321,91.726,361.536,356.836,0.0
56806.0,STARLINK-6072,PAYLOAD,2023-09-17 16:53:10,15.69923324,0.000378,69.9975,105.6224,273.452,86.6243,3.2434e-05,3.689e-05,0.0,0 STARLINK-6072,1 56806U 23078AR  23260.70359293  .00003689  00000-0  32434-4 0  9992,2 56806  69.9975 105.6224 0003780 273.4520  86.6243 15.69923324 17486,6737.253,91.724,361.665,356.572,0.0
56806.0,STARLINK-6072,PAYLOAD,2023-09-18 14:17:41,15.69928799,0.0003414,69.9981,103.1141,268.8737,91.2068,1.4002e-05,1.471e-05,0.0,0 STARLINK-6072,1 56806U 23078AR  23261.59562374  .00001471  00000-0  14002-4 0  9994,2 56806  69.9981 103.1141 0003414 268.8737  91.2068 15.69928799 17361,6737.238,91.724,361.403,356.803,0.0
56806.0,STARLINK-6072,PAYLOAD,2023-09-18 17:21:12,15.69929036,0.000352,69.9977,102.7559,271.1703,88.9089,7.1838e-06,6.51e-06,0.0,0 STARLINK-6072,1 56806U 23078AR  23261.72305742  .00000651  00000-0  71838-5 0  9993,2 56806  69.9977 102.7559 0003520 271.1703  88.9089 15.69929036 17644,6737.237,91.724,361.474,356.731,0.0
56806.0,STARLINK-6072,PAYLOAD,2023-09-18 20:24:42,15.69927491,0.0003592,69.9984,102.3988,268.7799,91.2985,6.4286e-06,5.6e-06,0.0,0 STARLINK-6072,1 56806U 23078AR  23261.85049187  .00000560  00000-0  64286-5 0  9993,2 56806  69.9984 102.3988 0003592 268.7799  91.2985 15.69927491 17409,6737.241,91.724,361.526,356.686,0.0
56806.0,STARLINK-6072,PAYLOAD,2023-09-18 23:26:28,15.72342684,0.0010452,69.9981,102.0354,294.7394,65.2715,0.0044127,0.0063397,0.0,0 STARLINK-6072,1 56806U 23078AR  23261.97671894  .00633970  00000-0  44127-2 0  9998,2 56806  69.9981 102.0354 0010452 294.7394  65.2715 15.72342684 17684,6730.341,91.583,359.24,345.171,0.0
56806.0,STARLINK-6072,PAYLOAD,2023-09-19 12:00:00,15.69867461,0.0003467,69.9993,100.572,267.5566,162.3513,0.00054023,0.00065099,0.0,0 STARLINK-6072,1 56806U 23078AR  23262.50001157  .00065099  00000-0  54023-3 0  9995,2 56806  69.9993 100.5720 0003467 267.5566 162.3513 15.69867461 17769,6737.413,91.727,361.614,356.942,0.0
56806.0,STARLINK-6072,PAYLOAD,2023-09-19 16:17:27,15.70042213,0.0011507,69.9987,100.0688,275.6069,84.3814,-0.00040348,-0.00048869,0.0,0 STARLINK-6072,1 56806U 23078AR  23262.67878710 -.00048869  00000-0 -40348-3 0  9993,2 56806  69.9987 100.0688 0011507 275.6069  84.3814 15.70042213 17794,6736.913,91.717,366.53,351.026,0.0
56806.0,STARLINK-6072,PAYLOAD,2023-09-20 04:00:00,15.6999111,0.0003454,69.9994,98.6975,276.5021,320.0048,-0.0010384,-0.00123599,0.0,0 STARLINK-6072,1 56806U 23078AR  23263.16667824 -.00123599  00000-0 -10384-2 0  9990,2 56806  69.9994  98.6975 0003454 276.5021 320.0048 15.69991110 17878,6737.059,91.72,361.251,356.597,0.0
56806.0,STARLINK-6072,PAYLOAD,2023-09-20 08:00:01,15.69902063,0.0003508,69.9998,98.2289,271.351,186.8517,0.0002858,0.00034262,0.0,0 STARLINK-6072,1 56806U 23078AR  23263.33334491  .00034262  00000-0  28580-3 0  9994,2 56806  69.9998  98.2289 0003508 271.3510 186.8517 15.69902063 17892,6737.314,91.725,361.543,356.816,0.0
